[{"OBJECT_NAME":"STARLINK-33934","OBJECT_ID":"2025-113T","EPOCH":"2026-03-09T08:38:29.148576","MEAN_MOTION":15.30199735,"ECCENTRICITY":0.00011947,"INCLINATION":53.1586,"RA_OF_ASC_NODE":92.7337,"ARG_OF_PERICENTER":82.1972,"MEAN_ANOMALY":277.9164,"EPHEMERIS_TYPE":0,"CLASSIFICATION_TYPE":"U","NORAD_CAT_ID":64187,"ELEMENT_SET_NO":999,"REV_AT_EPOCH":4497,"BSTAR":0.00074842181,"MEAN_MOTION_DOT":0.00021872,"MEAN_MOTION_DDOT":0},{"OBJECT_NAME":"COSMOS 1328","OBJECT_ID":"1981-117A","EPOCH":"2026-03-09T17:51:53.113536","MEAN_MOTION":15.33902077,"ECCENTRICITY":0.00108717,"INCLINATION":82.4939,"RA_OF_ASC_NODE":350.453,"ARG_OF_PERICENTER":167.9725,"MEAN_ANOMALY":192.1779,"EPHEMERIS_TYPE":0,"CLASSIFICATION_TYPE":"U","NORAD_CAT_ID":12987,"ELEMENT_SET_NO":999,"REV_AT_EPOCH":41406,"BSTAR":0.00040501644,"MEAN_MOTION_DOT":0.00013342,"MEAN_MOTION_DDOT":0}]
